{
  "type": "FeatureCollection",
  "features": [
    {
      "type": "Feature",
      "properties": {
        "norad_id": 34079,
        "name": "IRIDIUM 33 DEB",
        "group": "iridium-33-debris",
        "lat": -55.816249282764936,
        "lon": -0.10096887465160298,
        "alt_km": 622.1542386326419,
        "timestamp": "2025-12-20T05:41:50.415836+00:00",
        "meta_object_name": "IRIDIUM 33 DEB",
        "meta_object_id": "1997-051CN",
        "meta_epoch": "2025-12-19T07:23:13.665120",
        "meta_mean_motion": 14.83686948,
        "meta_eccentricity": 0.0004814,
        "meta_inclination": 86.3768,
        "meta_ra_of_asc_node": 5.675,
        "meta_arg_of_pericenter": 345.2663,
        "meta_mean_anomaly": 36.9038,
        "meta_ephemeris_type": 0,
        "meta_classification_type": "U",
        "meta_norad_cat_id": 34079,
        "meta_element_set_no": 999,
        "meta_rev_at_epoch": 89075,
        "meta_bstar": 0.0011698,
        "meta_mean_motion_dot": 9.693e-05,
        "meta_mean_motion_ddot": 0,
        "tle_line1": "1 34079U 97051CN  25353.30779705  .00009693  00000+0  11698-2 0  9994",
        "tle_line2": "2 34079  86.3768   5.6750 0004814 345.2663  36.9038 14.83686948890757"
      },
      "geometry": {
        "type": "Point",
        "coordinates": [
          -0.10096887465160298,
          -55.816249282764936
        ]
      }
    },
    {
      "type": "Feature",
      "properties": {
        "norad_id": 34088,
        "name": "IRIDIUM 33 DEB",
        "group": "iridium-33-debris",
        "lat": -69.07800323072675,
        "lon": -143.20108331874118,
        "alt_km": 600.5393654380605,
        "timestamp": "2025-12-20T05:41:50.415847+00:00",
        "meta_object_name": "IRIDIUM 33 DEB",
        "meta_object_id": "1997-051CX",
        "meta_epoch": "2025-12-19T21:19:30.821088",
        "meta_mean_motion": 14.91686205,
        "meta_eccentricity": 0.00064442,
        "meta_inclination": 86.3843,
        "meta_ra_of_asc_node": 27.4388,
        "meta_arg_of_pericenter": 153.8691,
        "meta_mean_anomaly": 23.3463,
        "meta_ephemeris_type": 0,
        "meta_classification_type": "U",
        "meta_norad_cat_id": 34088,
        "meta_element_set_no": 999,
        "meta_rev_at_epoch": 88848,
        "meta_bstar": 0.0014658397,
        "meta_mean_motion_dot": 0.00014784,
        "meta_mean_motion_ddot": 0,
        "tle_line1": "1 34088U 97051CX  25353.88855117  .00014784  00000+0  14658-2 0  9995",
        "tle_line2": "2 34088  86.3843  27.4388 0006444 153.8691  23.3463 14.91686205888489"
      },
      "geometry": {
        "type": "Point",
        "coordinates": [
          -143.20108331874118,
          -69.07800323072675
        ]
      }
    },
    {
      "type": "Feature",
      "properties": {
        "norad_id": 34091,
        "name": "IRIDIUM 33 DEB",
        "group": "iridium-33-debris",
        "lat": 0.2212675307437249,
        "lon": -116.61470312637414,
        "alt_km": 623.5472960070083,
        "timestamp": "2025-12-20T05:41:50.415857+00:00",
        "meta_object_name": "IRIDIUM 33 DEB",
        "meta_object_id": "1997-051DA",
        "meta_epoch": "2025-12-19T22:24:18.926496",
        "meta_mean_motion": 14.82312131,
        "meta_eccentricity": 0.00338449,
        "meta_inclination": 86.3415,
        "meta_ra_of_asc_node": 63.5387,
        "meta_arg_of_pericenter": 267.208,
        "meta_mean_anomaly": 92.5268,
        "meta_ephemeris_type": 0,
        "meta_classification_type": "U",
        "meta_norad_cat_id": 34091,
        "meta_element_set_no": 999,
        "meta_rev_at_epoch": 87973,
        "meta_bstar": 0.0028290664,
        "meta_mean_motion_dot": 0.00022907,
        "meta_mean_motion_ddot": 0,
        "tle_line1": "1 34091U 97051DA  25353.93355239  .00022907  00000+0  28291-2 0  9999",
        "tle_line2": "2 34091  86.3415  63.5387 0033844 267.2080  92.5268 14.82312131879737"
      },
      "geometry": {
        "type": "Point",
        "coordinates": [
          -116.61470312637414,
          0.2212675307437249
        ]
      }
    },
    {
      "type": "Feature",
      "properties": {
        "norad_id": 34097,
        "name": "IRIDIUM 33 DEB",
        "group": "iridium-33-debris",
        "lat": -52.56776833748083,
        "lon": -176.92012524790061,
        "alt_km": 797.4410173320166,
        "timestamp": "2025-12-20T05:41:50.415868+00:00",
        "meta_object_name": "IRIDIUM 33 DEB",
        "meta_object_id": "1997-051DG",
        "meta_epoch": "2025-12-19T00:09:26.087616",
        "meta_mean_motion": 14.34825402,
        "meta_eccentricity": 0.00819041,
        "meta_inclination": 86.2,
        "meta_ra_of_asc_node": 358.6418,
        "meta_arg_of_pericenter": 341.7144,
        "meta_mean_anomaly": 18.111,
        "meta_ephemeris_type": 0,
        "meta_classification_type": "U",
        "meta_norad_cat_id": 34097,
        "meta_element_set_no": 999,
        "meta_rev_at_epoch": 87209,
        "meta_bstar": 0.0011301988,
        "meta_mean_motion_dot": 3.348e-05,
        "meta_mean_motion_ddot": 0,
        "tle_line1": "1 34097U 97051DG  25353.00655194  .00003348  00000+0  11302-2 0  9999",
        "tle_line2": "2 34097  86.2000 358.6418 0081904 341.7144  18.1110 14.34825402872093"
      },
      "geometry": {
        "type": "Point",
        "coordinates": [
          -176.92012524790061,
          -52.56776833748083
        ]
      }
    },
    {
      "type": "Feature",
      "properties": {
        "norad_id": 34145,
        "name": "IRIDIUM 33 DEB",
        "group": "iridium-33-debris",
        "lat": -15.523055579378669,
        "lon": -31.86748349493552,
        "alt_km": 752.1025007537446,
        "timestamp": "2025-12-20T05:41:50.415879+00:00",
        "meta_object_name": "IRIDIUM 33 DEB",
        "meta_object_id": "1997-051DY",
        "meta_epoch": "2025-12-18T08:48:48.486240",
        "meta_mean_motion": 14.42328092,
        "meta_eccentricity": 0.00557365,
        "meta_inclination": 86.2113,
        "meta_ra_of_asc_node": 330.0199,
        "meta_arg_of_pericenter": 75.968,
        "meta_mean_anomaly": 284.7708,
        "meta_ephemeris_type": 0,
        "meta_classification_type": "U",
        "meta_norad_cat_id": 34145,
        "meta_element_set_no": 999,
        "meta_rev_at_epoch": 87719,
        "meta_bstar": 0.00092678493,
        "meta_mean_motion_dot": 3.137e-05,
        "meta_mean_motion_ddot": 0,
        "tle_line1": "1 34145U 97051DY  25352.36722785  .00003137  00000+0  92678-3 0  9994",
        "tle_line2": "2 34145  86.2113 330.0199 0055736  75.9680 284.7708 14.42328092877199"
      },
      "geometry": {
        "type": "Point",
        "coordinates": [
          -31.86748349493552,
          -15.523055579378669
        ]
      }
    },
    {
      "type": "Feature",
      "properties": {
        "norad_id": 34146,
        "name": "IRIDIUM 33 DEB",
        "group": "iridium-33-debris",
        "lat": 15.02065136010092,
        "lon": 165.48858971330833,
        "alt_km": 713.5477863572632,
        "timestamp": "2025-12-20T05:41:50.415889+00:00",
        "meta_object_name": "IRIDIUM 33 DEB",
        "meta_object_id": "1997-051DZ",
        "meta_epoch": "2025-12-19T11:24:45.977760",
        "meta_mean_motion": 14.49090588,
        "meta_eccentricity": 0.0026145,
        "meta_inclination": 86.2829,
        "meta_ra_of_asc_node": 346.8246,
        "meta_arg_of_pericenter": 198.122,
        "meta_mean_anomaly": 315.0041,
        "meta_ephemeris_type": 0,
        "meta_classification_type": "U",
        "meta_norad_cat_id": 34146,
        "meta_element_set_no": 999,
        "meta_rev_at_epoch": 88204,
        "meta_bstar": 0.0006219,
        "meta_mean_motion_dot": 2.392e-05,
        "meta_mean_motion_ddot": 0,
        "tle_line1": "1 34146U 97051DZ  25353.47553215  .00002392  00000+0  62190-3 0  9996",
        "tle_line2": "2 34146  86.2829 346.8246 0026145 198.1220 315.0041 14.49090588882043"
      },
      "geometry": {
        "type": "Point",
        "coordinates": [
          165.48858971330833,
          15.02065136010092
        ]
      }
    },
    {
      "type": "Feature",
      "properties": {
        "norad_id": 34159,
        "name": "IRIDIUM 33 DEB",
        "group": "iridium-33-debris",
        "lat": -44.83638487070553,
        "lon": 41.405810799144774,
        "alt_km": 759.1781877512412,
        "timestamp": "2025-12-20T05:41:50.415899+00:00",
        "meta_object_name": "IRIDIUM 33 DEB",
        "meta_object_id": "1997-051EN",
        "meta_epoch": "2025-12-19T09:52:20.074080",
        "meta_mean_motion": 14.38508991,
        "meta_eccentricity": 0.0026,
        "meta_inclination": 86.3502,
        "meta_ra_of_asc_node": 45.3967,
        "meta_arg_of_pericenter": 264.238,
        "meta_mean_anomaly": 95.5854,
        "meta_ephemeris_type": 0,
        "meta_classification_type": "U",
        "meta_norad_cat_id": 34159,
        "meta_element_set_no": 999,
        "meta_rev_at_epoch": 88055,
        "meta_bstar": 0.00027729,
        "meta_mean_motion_dot": 8.69e-06,
        "meta_mean_motion_ddot": 0,
        "tle_line1": "1 34159U 97051EN  25353.41134345  .00000869  00000+0  27729-3 0  9999",
        "tle_line2": "2 34159  86.3502  45.3967 0026000 264.2380  95.5854 14.38508991880555"
      },
      "geometry": {
        "type": "Point",
        "coordinates": [
          41.405810799144774,
          -44.83638487070553
        ]
      }
    }
  ]
}